start=new Date('2022-03-28T00:00:00.000Z').valueOf();
sats=[{"CLASSIFICATION_TYPE":"U","ECCENTRICITY":"0.00014780","PERIAPSIS":"546.216","RA_OF_ASC_NODE":"184.7033","REF_FRAME":"TEME","OBJECT_NAME":"STARLINK-1013","REV_AT_EPOCH":"13237","MEAN_MOTION_DOT":"0.00000849","ELEMENT_SET_NO":"999","PERIOD":"95.593","MEAN_ELEMENT_THEORY":"SGP4","COUNTRY_CODE":"US","CENTER_NAME":"EARTH","MEAN_MOTION":"15.06391656","GP_ID":"199861276","INCLINATION":"53.0560","ARG_OF_PERICENTER":"62.7122","FILE":"3377053","LAUNCH_DATE":"2019-11-11","OBJECT_TYPE":"PAYLOAD","EPOCH":"2022-03-27T15:28:45.801120","RCS_SIZE":"LARGE","NORAD_CAT_ID":"44719","TIME_SYSTEM":"UTC","OBJECT_ID":"2019-074G","SITE":"AFETR","APOAPSIS":"548.263","EPHEMERIS_TYPE":"0","BSTAR":"0.00007590400000","DECAY_DATE":null,"TLE_LINE2":"2 44719  53.0560 184.7033 0001478  62.7122 297.4018 15.06391656132371","MEAN_ANOMALY":"297.4018","TLE_LINE1":"1 44719U 19074G   22086.64497455  .00000849  00000-0  75904-4 0  9998","SEMIMAJOR_AXIS":"6925.374","MEAN_MOTION_DDOT":"0.0000000000000"},{"BSTAR":"0.00024024000000","DECAY_DATE":null,"TLE_LINE1":"1 44720U 19074H   22086.72974487  .00003299  00000-0  24024-3 0  9992","TLE_LINE2":"2 44720  53.0530 184.3099 0001523  63.0899 297.0246 15.06405240131265","MEAN_ANOMALY":"297.0246","SEMIMAJOR_AXIS":"6925.332","MEAN_MOTION_DDOT":"0.0000000000000","APOAPSIS":"548.252","SITE":"AFETR","EPHEMERIS_TYPE":"0","EPOCH":"2022-03-27T17:30:49.956768","RCS_SIZE":"LARGE","NORAD_CAT_ID":"44720","TIME_SYSTEM":"UTC","OBJECT_ID":"2019-074H","ARG_OF_PERICENTER":"63.0899","FILE":"3377053","LAUNCH_DATE":"2019-11-11","OBJECT_TYPE":"PAYLOAD","CENTER_NAME":"EARTH","COUNTRY_CODE":"US","MEAN_MOTION":"15.06405240","GP_ID":"199860038","INCLINATION":"53.0530","RA_OF_ASC_NODE":"184.3099","PERIAPSIS":"546.143","REF_FRAME":"TEME","ECCENTRICITY":"0.00015230","OBJECT_NAME":"STARLINK-1014","REV_AT_EPOCH":"13126","MEAN_MOTION_DOT":"0.00003299","ELEMENT_SET_NO":"999","PERIOD":"95.592","MEAN_ELEMENT_THEORY":"SGP4","CLASSIFICATION_TYPE":"U"},{"SITE":"AFETR","APOAPSIS":"548.184","EPHEMERIS_TYPE":"0","TLE_LINE2":"2 44721  53.0562 184.6629 0001377  64.2774 295.8357 15.06394439131249","MEAN_ANOMALY":"295.8357","TLE_LINE1":"1 44721U 19074J   22086.65233748  .00000916  00000-0  80386-4 0  9990","SEMIMAJOR_AXIS":"6925.366","BSTAR":"0.00008038600000","DECAY_DATE":null,"MEAN_MOTION_DDOT":"0.0000000000000","ARG_OF_PERICENTER":"64.2774","FILE":"3377053","OBJECT_TYPE":"PAYLOAD","LAUNCH_DATE":"2019-11-11","NORAD_CAT_ID":"44721","TIME_SYSTEM":"UTC","EPOCH":"2022-03-27T15:39:21.958272","RCS_SIZE":"LARGE","OBJECT_ID":"2019-074J","PERIAPSIS":"546.277","RA_OF_ASC_NODE":"184.6629","ECCENTRICITY":"0.00013770","REF_FRAME":"TEME","REV_AT_EPOCH":"13124","OBJECT_NAME":"STARLINK-1015","ELEMENT_SET_NO":"999","MEAN_ELEMENT_THEORY":"SGP4","PERIOD":"95.592","MEAN_MOTION_DOT":"0.00000916","CENTER_NAME":"EARTH","COUNTRY_CODE":"US","INCLINATION":"53.0562","MEAN_MOTION":"15.06394439","GP_ID":"199860288","CLASSIFICATION_TYPE":"U"},{"CLASSIFICATION_TYPE":"U","INCLINATION":"53.0550","GP_ID":"199861539","MEAN_MOTION":"15.06393009","CENTER_NAME":"EARTH","COUNTRY_CODE":"US","MEAN_ELEMENT_THEORY":"SGP4","PERIOD":"95.593","ELEMENT_SET_NO":"999","MEAN_MOTION_DOT":"0.00000857","REV_AT_EPOCH":"13125","OBJECT_NAME":"STARLINK-1016","RA_OF_ASC_NODE":"184.6473","PERIAPSIS":"546.270","ECCENTRICITY":"0.00013930","REF_FRAME":"TEME","OBJECT_ID":"2019-074K","TIME_SYSTEM":"UTC","NORAD_CAT_ID":"44722","RCS_SIZE":"LARGE","EPOCH":"2022-03-27T15:44:40.426944","OBJECT_TYPE":"PAYLOAD","LAUNCH_DATE":"2019-11-11","ARG_OF_PERICENTER":"81.5057","FILE":"3377053","MEAN_MOTION_DDOT":"0.0000000000000","SEMIMAJOR_AXIS":"6925.370","TLE_LINE1":"1 44722U 19074K   22086.65602346  .00000857  00000-0  76413-4 0  9995","TLE_LINE2":"2 44722  53.0550 184.6473 0001393  81.5057 278.6090 15.06393009131254","MEAN_ANOMALY":"278.6090","DECAY_DATE":null,"BSTAR":"0.00007641300000","EPHEMERIS_TYPE":"0","APOAPSIS":"548.200","SITE":"AFETR"},{"CLASSIFICATION_TYPE":"U","ECCENTRICITY":"0.00014300","PERIAPSIS":"546.262","RA_OF_ASC_NODE":"185.1888","REF_FRAME":"TEME","OBJECT_NAME":"STARLINK-1017","REV_AT_EPOCH":"13123","MEAN_MOTION_DOT":"-0.00000574","ELEMENT_SET_NO":"999","MEAN_ELEMENT_THEORY":"SGP4","PERIOD":"95.593","CENTER_NAME":"EARTH","COUNTRY_CODE":"US","MEAN_MOTION":"15.06387187","GP_ID":"199826914","INCLINATION":"53.0542","FILE":"3376641","ARG_OF_PERICENTER":"66.6409","LAUNCH_DATE":"2019-11-11","OBJECT_TYPE":"PAYLOAD","EPOCH":"2022-03-27T12:54:50.328864","RCS_SIZE":"LARGE","NORAD_CAT_ID":"44723","TIME_SYSTEM":"UTC","OBJECT_ID":"2019-074L","APOAPSIS":"548.243","SITE":"AFETR","EPHEMERIS_TYPE":"0","BSTAR":"-0.00001967400000","DECAY_DATE":null,"TLE_LINE1":"1 44723U 19074L   22086.53808251 -.00000574  00000-0 -19674-4 0  9990","TLE_LINE2":"2 44723  53.0542 185.1888 0001430  66.6409 293.4731 15.06387187131234","MEAN_ANOMALY":"293.4731","SEMIMAJOR_AXIS":"6925.388","MEAN_MOTION_DDOT":"0.0000000000000"},{"CLASSIFICATION_TYPE":"U","INCLINATION":"53.0551","MEAN_MOTION":"15.06399133","GP_ID":"199860538","CENTER_NAME":"EARTH","COUNTRY_CODE":"US","ELEMENT_SET_NO":"999","MEAN_ELEMENT_THEORY":"SGP4","PERIOD":"95.592","MEAN_MOTION_DOT":"0.00000605","RA_OF_ASC_NODE":"184.4554","PERIAPSIS":"546.177","REF_FRAME":"TEME","ECCENTRICITY":"0.00015000","REV_AT_EPOCH":"13125","OBJECT_NAME":"STARLINK-1019","OBJECT_ID":"2019-074M","NORAD_CAT_ID":"44724","TIME_SYSTEM":"UTC","EPOCH":"2022-03-27T16:48:22.076928","RCS_SIZE":"LARGE","OBJECT_TYPE":"PAYLOAD","LAUNCH_DATE":"2019-11-11","FILE":"3377053","ARG_OF_PERICENTER":"57.0692","MEAN_MOTION_DDOT":"0.0000000000000","TLE_LINE2":"2 44724  53.0551 184.4554 0001500  57.0692 303.0441 15.06399133131255","TLE_LINE1":"1 44724U 19074M   22086.70025552  .00000605  00000-0  59494-4 0  9992","MEAN_ANOMALY":"303.0441","SEMIMAJOR_AXIS":"6925.351","BSTAR":"0.00005949400000","DECAY_DATE":null,"EPHEMERIS_TYPE":"0","APOAPSIS":"548.255","SITE":"AFETR"},{"OBJECT_ID":"2019-074N","RCS_SIZE":"LARGE","EPOCH":"2022-03-27T16:56:20.532480","NORAD_CAT_ID":"44725","TIME_SYSTEM":"UTC","LAUNCH_DATE":"2019-11-11","OBJECT_TYPE":"PAYLOAD","FILE":"3377053","ARG_OF_PERICENTER":"70.3550","MEAN_MOTION_DDOT":"0.0000000000000","BSTAR":"0.00007202100000","DECAY_DATE":null,"TLE_LINE1":"1 44725U 19074N   22086.70579320  .00000791  00000-0  72021-4 0  9997","TLE_LINE2":"2 44725  53.0547 204.4146 0001411  70.3550 289.7592 15.06392676130973","MEAN_ANOMALY":"289.7592","SEMIMAJOR_AXIS":"6925.371","EPHEMERIS_TYPE":"0","SITE":"AFETR","APOAPSIS":"548.213","CLASSIFICATION_TYPE":"U","MEAN_MOTION":"15.06392676","GP_ID":"199860788","INCLINATION":"53.0547","COUNTRY_CODE":"US","CENTER_NAME":"EARTH","MEAN_MOTION_DOT":"0.00000791","ELEMENT_SET_NO":"999","MEAN_ELEMENT_THEORY":"SGP4","PERIOD":"95.593","RA_OF_ASC_NODE":"204.4146","PERIAPSIS":"546.259","REF_FRAME":"TEME","ECCENTRICITY":"0.00014110","OBJECT_NAME":"STARLINK-1020","REV_AT_EPOCH":"13097"},{"CLASSIFICATION_TYPE":"U","ELEMENT_SET_NO":"999","PERIOD":"95.593","MEAN_ELEMENT_THEORY":"SGP4","MEAN_MOTION_DOT":"0.00001599","REF_FRAME":"TEME","PERIAPSIS":"546.337","RA_OF_ASC_NODE":"184.4720","ECCENTRICITY":"0.00013000","REV_AT_EPOCH":"13125","OBJECT_NAME":"STARLINK-1021","INCLINATION":"53.0532","MEAN_MOTION":"15.06392367","GP_ID":"199861040","COUNTRY_CODE":"US","CENTER_NAME":"EARTH","OBJECT_TYPE":"PAYLOAD","LAUNCH_DATE":"2019-11-11","ARG_OF_PERICENTER":"68.6700","FILE":"3377053","OBJECT_ID":"2019-074P","NORAD_CAT_ID":"44726","TIME_SYSTEM":"UTC","EPOCH":"2022-03-27T16:43:03.736128","RCS_SIZE":"LARGE","EPHEMERIS_TYPE":"0","SITE":"AFETR","APOAPSIS":"548.137","MEAN_MOTION_DDOT":"0.0000000000000","TLE_LINE2":"2 44726  53.0532 184.4720 0001300  68.6700 291.4427 15.06392367131253","TLE_LINE1":"1 44726U 19074P   22086.69657102  .00001599  00000-0  12621-3 0  9997","MEAN_ANOMALY":"291.4427","SEMIMAJOR_AXIS":"6925.372","BSTAR":"0.00012621000000","DECAY_DATE":null},{"GP_ID":"199861277","MEAN_MOTION":"15.06397194","INCLINATION":"53.0531","CENTER_NAME":"EARTH","COUNTRY_CODE":"US","MEAN_MOTION_DOT":"0.00001811","PERIOD":"95.592","MEAN_ELEMENT_THEORY":"SGP4","ELEMENT_SET_NO":"999","REV_AT_EPOCH":"13072","OBJECT_NAME":"STARLINK-1022","RA_OF_ASC_NODE":"224.0117","PERIAPSIS":"546.047","ECCENTRICITY":"0.00016970","REF_FRAME":"TEME","CLASSIFICATION_TYPE":"U","MEAN_MOTION_DDOT":"0.0000000000000","DECAY_DATE":null,"BSTAR":"0.00014044000000","SEMIMAJOR_AXIS":"6925.357","TLE_LINE2":"2 44727  53.0531 224.0117 0001697  57.2483 302.8669 15.06397194130724","TLE_LINE1":"1 44727U 19074Q   22086.79882877  .00001811  00000-0  14044-3 0  9996","MEAN_ANOMALY":"302.8669","EPHEMERIS_TYPE":"0","APOAPSIS":"548.397","SITE":"AFETR","OBJECT_ID":"2019-074Q","EPOCH":"2022-03-27T19:10:18.805728","RCS_SIZE":"LARGE","TIME_SYSTEM":"UTC","NORAD_CAT_ID":"44727","LAUNCH_DATE":"2019-11-11","OBJECT_TYPE":"PAYLOAD","FILE":"3377053","ARG_OF_PERICENTER":"57.2483"},{"MEAN_ANOMALY":"294.1206","TLE_LINE2":"2 44729  53.0016 198.2936 0001639  65.9955 294.1206 15.10557655131020","TLE_LINE1":"1 44729U 19074S   22086.60611929  .00018475  00000-0  11218-2 0  9999","SEMIMAJOR_AXIS":"6912.635","BSTAR":"0.00112180000000","DECAY_DATE":null,"MEAN_MOTION_DDOT":"0.0000000000000","APOAPSIS":"535.633","SITE":"AFETR","EPHEMERIS_TYPE":"0","NORAD_CAT_ID":"44729","TIME_SYSTEM":"UTC","EPOCH":"2022-03-27T14:32:48.706656","RCS_SIZE":"LARGE","OBJECT_ID":"2019-074S","FILE":"3376641","ARG_OF_PERICENTER":"65.9955","OBJECT_TYPE":"PAYLOAD","LAUNCH_DATE":"2019-11-11","COUNTRY_CODE":"US","CENTER_NAME":"EARTH","INCLINATION":"53.0016","MEAN_MOTION":"15.10557655","GP_ID":"199825663","RA_OF_ASC_NODE":"198.2936","PERIAPSIS":"533.367","REF_FRAME":"TEME","ECCENTRICITY":"0.00016390","REV_AT_EPOCH":"13102","OBJECT_NAME":"STARLINK-1024","ELEMENT_SET_NO":"999","PERIOD":"95.329","MEAN_ELEMENT_THEORY":"SGP4","MEAN_MOTION_DOT":"0.00018475","CLASSIFICATION_TYPE":"U"}];
